satname,norad_id,inclination_deg,eccentricity,mean_motion_rev_per_day,perigee_km,apogee_km,l1,l2
STARLINK-1560,46036,53.0809,0.0001566,15.12911103,526.2461724687464,528.4089639715121,1 46036U 20055K   26064.91668981  .01451357  00000+0  74431-1 0  9992,2 46036  53.0809 143.4822 0001566 119.0037  98.0736 15.12911103  5843
STARLINK-1567,46038,53.0735,0.0001914,15.11209539,531.1874236677577,533.8328193858788,1 46038U 20055M   26064.91668981  .01338775  00000+0  72484-1 0  9998,2 46038  53.0735 143.5117 0001914  77.2679  63.0969 15.11209539  5847
STARLINK-1569,46039,53.0817,0.0002598,15.13474797,523.8192397591756,527.4064281729043,1 46039U 20055N   26064.91668981  .00051185  00000+0  28245-2 0  9992,2 46039  53.0817 143.4425 0002598  75.9265  62.4548 15.13474797  5731
STARLINK-1582,46043,53.0728,0.000132,15.11107614,531.9086227733096,533.7331156507826,1 46043U 20055S   26064.91668981  .01398941  00000+0  75660-1 0  9994,2 46043  53.0728 143.5139 0001320  57.8231   0.9409 15.11107614  5680
STARLINK-1591,46045,53.0844,2.36e-05,15.14151271,523.3935522075535,523.7193121375531,1 46045U 20055U   26064.91668981  .00044323  00000+0  24045-2 0  9999,2 46045  53.0844 143.3946 0000236  49.8496 295.2751 15.14151271  5785
STARLINK-1524,46047,53.1562,0.0001325,15.2936452,476.80239784816695,478.619197514553,1 46047U 20055W   26064.47154840  .00001539  00000+0  65625-4 0  9999,2 46047  53.1562 133.4067 0001325  86.6767 273.4385 15.29364520308426
STARLINK-1527,46048,53.1575,0.0001328,15.30175538,474.3779746605014,476.1982443695888,1 46048U 20055X   26064.83334490  .00008013  00000+0  28259-3 0  9996,2 46048  53.1575 131.8512 0001328  97.9740  46.2857 15.30175538  5837
STARLINK-1540,46051,53.1563,0.0001671,15.29357614,476.5858209921789,478.8770522236937,1 46051U 20055AA  26064.50267586  .00001114  00000+0  50932-4 0  9994,2 46051  53.1563 133.2827 0001671  64.1079 296.0094 15.29357614308441
STARLINK-1541,46052,53.1573,0.0001329,15.30151102,474.4502440273991,476.27190381544733,1 46052U 20055AB  26064.83334490  .00051958  00000+0  17568-2 0  9997,2 46052  53.1573 131.7974 0001329  87.6963 346.9159 15.30151102  5662
STARLINK-1543,46053,53.1567,0.0001635,15.29349588,476.63448449457337,478.87636131686395,1 46053U 20055AC  26064.49918334  .00000280  00000+0  22052-4 0  9993,2 46053  53.1567 133.3691 0001635  79.7729 280.3456 15.29349588308439
STARLINK-1548,46054,53.1562,0.0001301,15.29365251,476.8166675461116,478.60055857463067,1 46054U 20055AD  26064.57186082 -.00001193  00000+0 -28988-4 0  9990,2 46054  53.1562 133.0300 0001301 133.1823 226.9286 15.29365251308442
STARLINK-1554,46055,53.1585,0.000146,15.30201552,474.2098467054175,476.2110241565633,1 46055U 20055AE  26064.83334490 -.00017519  00000+0 -58071-3 0  9992,2 46055  53.1585 131.9495 0001460  75.4377 295.1610 15.30201552  5772
STARLINK-1564,46058,53.1581,0.0001034,15.30220082,474.44647843883195,475.86373924694,1 46058U 20055AH  26064.83334490 -.00016085  00000+0 -53180-3 0  9998,2 46058  53.1581 132.2824 0001034  70.3939 311.3909 15.30220082  5834
STARLINK-1570,46059,53.1587,0.000148,15.29904616,475.08274804221674,477.1116013579276,1 46059U 20055AJ  26064.59752197  .00059209  00000+0  20136-2 0  9997,2 46059  53.1587 132.9184 0001480 103.1678 256.9488 15.29904616308402
STARLINK-1572,46060,53.1548,0.0001484,15.29354712,476.7226972634644,478.7575215895422,1 46060U 20055AK  26064.60936764 -.00000509  00000+0 -53120-5 0  9998,2 46060  53.1548 133.0185 0001484  96.0725 264.0444 15.29354712308410
STARLINK-1573,46061,53.1611,0.0001636,15.30191541,474.1191140543024,476.36153911556084,1 46061U 20055AL  26064.58173925  .00003281  00000+0  12289-3 0  9995,2 46061  53.1611 132.9437 0001636 114.8821 245.2350 15.30191541308446
STARLINK-1577,46063,53.156,0.0001387,15.2993876,475.04452782378394,476.9458640949424,1 46063U 20055AN  26064.67338270  .00122335  00000+0  41080-2 0  9995,2 46063  53.1560 132.4894 0001387  94.6160 265.4999 15.29938760308451
STARLINK-1583,46064,53.156,0.0001397,15.29347395,476.8042077987038,478.7197459728459,1 46064U 20055AP  26064.51201885  .00000170  00000+0  18238-4 0  9993,2 46064  53.1560 133.2593 0001397  90.2366 269.8795 15.29347395308425
STARLINK-1525,46066,53.0529,0.0001486,15.11302666,531.1993476369698,533.2531075882162,1 46066U 20055AR  26064.83334490  .00041248  00000+0  24248-2 0  9996,2 46066  53.0529 113.8708 0001486 105.0492 154.0681 15.11302666  5838
STARLINK-1536,46070,53.055,0.000144,15.06401336,546.210213691008,548.2047128964368,1 46070U 20055AV  26064.43754837  .00001623  00000+0  12781-3 0  9991,2 46070  53.0550 115.7104 0001440 100.6897 259.4254 15.06401336308670
STARLINK-1542,46073,53.054,0.0001408,15.06395115,546.2514386151724,548.2016209851645,1 46073U 20055AY  26064.16479071  .00000322  00000+0  40488-4 0  9999,2 46073  53.0540 116.9314 0001408  97.7587 262.3562 15.06395115308621
STARLINK-1549,46074,53.0541,0.0001402,15.0638087,546.2992471655925,548.2411313414586,1 46074U 20055AZ  26064.54813715 -.00003411  00000+0 -21032-3 0  9996,2 46074  53.0541 115.2103 0001402  92.8653 267.2496 15.06380870308672
STARLINK-1551,46075,53.0551,0.0001125,15.06396558,546.4430042930671,548.0012100921849,1 46075U 20055BA  26064.57393328 -.00000497  00000+0 -14503-4 0  9990,2 46075  53.0551 115.0979 0001125  97.7030 262.4087 15.06396558308682
STARLINK-1552,46076,53.0531,0.0001245,15.06410429,546.3173928236893,548.0417966557798,1 46076U 20055BB  26064.53336622  .00001557  00000+0  12336-3 0  9998,2 46076  53.0531 115.2758 0001245  98.7937 261.3193 15.06410429308666
STARLINK-1559,46077,53.0262,0.0004339,15.2903175,475.73029014586973,481.68065804489015,1 46077U 20055BC  26064.50845362  .00037945  00000+0  13334-2 0  9990,2 46077  53.0262  93.3902 0004339  25.5561 334.5651 15.29031750308947
STARLINK-1566,46079,53.0544,0.0001583,15.06394531,546.1320343562029,548.3246050164162,1 46079U 20055BE  26064.41912116 -.00000003  00000+0  18703-4 0  9997,2 46079  53.0544 115.7920 0001583  95.6843 264.4326 15.06394531308663
STARLINK-1568,46080,53.0618,0.000609,15.4612724,423.9229342226008,432.2128918066528,1 46080U 20055BF  26064.83334490  .00080270  00000+0  16033-2 0  9993,2 46080  53.0618  51.3714 0006090 105.5353  26.1167 15.46127240  5731
STARLINK-1578,46082,53.0525,0.0001504,15.06401816,546.1644205793991,548.2475637514435,1 46082U 20055BH  26064.43386698 -.00001707  00000+0 -95717-4 0  9996,2 46082  53.0525 115.7224 0001504  83.0633 277.0527 15.06401816308662
